start=new Date('2022-02-09T00:00:00.000Z').valueOf();
sats=[{"PERIAPSIS":"348.869","OBJECT_ID":"2022-005D","PERIOD":"91.530","REV_AT_EPOCH":"329","MEAN_MOTION_DDOT":"0.0000000000000","BSTAR":"0.00037632000000","MEAN_MOTION":"15.73247012","COUNTRY_CODE":"US","GP_ID":"195513568","ECCENTRICITY":"0.00011250","OBJECT_TYPE":"PAYLOAD","ELEMENT_SET_NO":"999","CENTER_NAME":"EARTH","MEAN_MOTION_DOT":"0.00052632","CLASSIFICATION_TYPE":"U","SEMIMAJOR_AXIS":"6727.761","APOAPSIS":"350.383","RCS_SIZE":"LARGE","TLE_LINE2":"2 51107  53.2203 177.4643 0001125  61.1195 298.9938 15.73247012  3299","TIME_SYSTEM":"UTC","REF_FRAME":"TEME","RA_OF_ASC_NODE":"177.4643","OBJECT_NAME":"STARLINK-3368","MEAN_ELEMENT_THEORY":"SGP4","DECAY_DATE":null,"NORAD_CAT_ID":"51107","EPHEMERIS_TYPE":"0","TLE_LINE1":"1 51107U 22005D   22038.65170232  .00052632  00000-0  37632-3 0  9996","LAUNCH_DATE":"2022-01-19","EPOCH":"2022-02-07T15:38:27.080448","SITE":"AFETR","MEAN_ANOMALY":"298.9938","INCLINATION":"53.2203","FILE":"3294578","ARG_OF_PERICENTER":"61.1195"},{"MEAN_ELEMENT_THEORY":"SGP4","OBJECT_NAME":"STARLINK-3362","DECAY_DATE":null,"TIME_SYSTEM":"UTC","REF_FRAME":"TEME","RA_OF_ASC_NODE":"109.1199","MEAN_ANOMALY":"217.0450","INCLINATION":"97.5030","FILE":"3295427","ARG_OF_PERICENTER":"143.1616","NORAD_CAT_ID":"51108","EPHEMERIS_TYPE":"0","TLE_LINE1":"1 51108U 22005E   22039.88172079  .00003640  00000-0  21170-3 0  9999","LAUNCH_DATE":"2022-01-19","EPOCH":"2022-02-08T21:09:40.676256","SITE":"AFETR","ELEMENT_SET_NO":"999","CENTER_NAME":"EARTH","ECCENTRICITY":"0.00121270","OBJECT_TYPE":"PAYLOAD","TLE_LINE2":"2 51108  97.5030 109.1199 0012127 143.1616 217.0450 15.12631582  4597","CLASSIFICATION_TYPE":"U","MEAN_MOTION_DOT":"0.00003640","SEMIMAJOR_AXIS":"6906.315","RCS_SIZE":"LARGE","APOAPSIS":"536.556","REV_AT_EPOCH":"459","MEAN_MOTION_DDOT":"0.0000000000000","BSTAR":"0.00021170000000","PERIOD":"95.198","GP_ID":"195581604","MEAN_MOTION":"15.12631582","COUNTRY_CODE":"US","PERIAPSIS":"519.805","OBJECT_ID":"2022-005E"},{"ECCENTRICITY":"0.00012160","OBJECT_TYPE":"PAYLOAD","ELEMENT_SET_NO":"999","CENTER_NAME":"EARTH","MEAN_MOTION_DOT":"-0.00379229","CLASSIFICATION_TYPE":"U","SEMIMAJOR_AXIS":"6715.405","RCS_SIZE":"LARGE","APOAPSIS":"338.086","TLE_LINE2":"2 51109  53.2170 176.7368 0001216 317.0693  43.0234 15.77591169  4419","TIME_SYSTEM":"UTC","REF_FRAME":"TEME","RA_OF_ASC_NODE":"176.7368","OBJECT_NAME":"STARLINK-3358","MEAN_ELEMENT_THEORY":"SGP4","DECAY_DATE":null,"EPHEMERIS_TYPE":"0","NORAD_CAT_ID":"51109","LAUNCH_DATE":"2022-01-19","TLE_LINE1":"1 51109U 22005F   22038.65480635 -.00379229  00000-0 -23265-2 0  9991","EPOCH":"2022-02-07T15:42:55.268640","SITE":"AFETR","MEAN_ANOMALY":"43.0234","INCLINATION":"53.2170","FILE":"3294683","ARG_OF_PERICENTER":"317.0693","PERIAPSIS":"336.453","OBJECT_ID":"2022-005F","PERIOD":"91.278","REV_AT_EPOCH":"441","MEAN_MOTION_DDOT":"0.0000000000000","BSTAR":"-0.00232650000000","MEAN_MOTION":"15.77591169","COUNTRY_CODE":"US","GP_ID":"195516244"},{"PERIAPSIS":"348.538","OBJECT_ID":"2022-005G","PERIOD":"91.531","MEAN_MOTION_DDOT":"0.0000000000000","REV_AT_EPOCH":"329","BSTAR":"-0.00003052300000","MEAN_MOTION":"15.73230256","COUNTRY_CODE":"US","GP_ID":"195513419","OBJECT_TYPE":"PAYLOAD","ECCENTRICITY":"0.00016880","ELEMENT_SET_NO":"999","CENTER_NAME":"EARTH","MEAN_MOTION_DOT":"-0.00004908","CLASSIFICATION_TYPE":"U","SEMIMAJOR_AXIS":"6727.809","RCS_SIZE":"LARGE","APOAPSIS":"350.810","TLE_LINE2":"2 51110  53.2192 177.4624 0001688  52.2667 307.8506 15.73230256  3291","TIME_SYSTEM":"UTC","REF_FRAME":"TEME","RA_OF_ASC_NODE":"177.4624","MEAN_ELEMENT_THEORY":"SGP4","OBJECT_NAME":"STARLINK-3344","DECAY_DATE":null,"EPHEMERIS_TYPE":"0","NORAD_CAT_ID":"51110","TLE_LINE1":"1 51110U 22005G   22038.65125887 -.00004908  00000-0 -30523-4 0  9994","LAUNCH_DATE":"2022-01-19","EPOCH":"2022-02-07T15:37:48.766368","SITE":"AFETR","MEAN_ANOMALY":"307.8506","INCLINATION":"53.2192","FILE":"3294578","ARG_OF_PERICENTER":"52.2667"},{"PERIAPSIS":"348.652","OBJECT_ID":"2022-005H","MEAN_MOTION":"15.73254907","COUNTRY_CODE":"US","GP_ID":"195486425","PERIOD":"91.530","MEAN_MOTION_DDOT":"0.0000000000000","REV_AT_EPOCH":"439","BSTAR":"-0.00003540000000","MEAN_MOTION_DOT":"-0.00005597","CLASSIFICATION_TYPE":"U","SEMIMAJOR_AXIS":"6727.739","RCS_SIZE":"LARGE","APOAPSIS":"350.556","TLE_LINE2":"2 51111  53.2221 177.7712 0001415  86.5226 273.5956 15.73254907  4394","ECCENTRICITY":"0.00014150","OBJECT_TYPE":"PAYLOAD","ELEMENT_SET_NO":"999","CENTER_NAME":"EARTH","EPHEMERIS_TYPE":"0","NORAD_CAT_ID":"51111","TLE_LINE1":"1 51111U 22005H   22038.58693950 -.00005597  00000-0 -35400-4 0  9992","LAUNCH_DATE":"2022-01-19","SITE":"AFETR","EPOCH":"2022-02-07T14:05:11.572800","MEAN_ANOMALY":"273.5956","INCLINATION":"53.2221","FILE":"3294462","ARG_OF_PERICENTER":"86.5226","TIME_SYSTEM":"UTC","REF_FRAME":"TEME","RA_OF_ASC_NODE":"177.7712","MEAN_ELEMENT_THEORY":"SGP4","OBJECT_NAME":"STARLINK-3173","DECAY_DATE":null},{"ECCENTRICITY":"0.00016580","OBJECT_TYPE":"PAYLOAD","CENTER_NAME":"EARTH","ELEMENT_SET_NO":"999","RCS_SIZE":"LARGE","APOAPSIS":"350.851","SEMIMAJOR_AXIS":"6727.871","MEAN_MOTION_DOT":"0.00015270","CLASSIFICATION_TYPE":"U","TLE_LINE2":"2 51112  53.2210 177.4609 0001658  51.2997 308.8172 15.73208531  3290","RA_OF_ASC_NODE":"177.4609","REF_FRAME":"TEME","TIME_SYSTEM":"UTC","DECAY_DATE":null,"MEAN_ELEMENT_THEORY":"SGP4","OBJECT_NAME":"STARLINK-3374","EPOCH":"2022-02-07T15:37:38.998848","SITE":"AFETR","LAUNCH_DATE":"2022-01-19","TLE_LINE1":"1 51112U 22005J   22038.65114582  .00015270  00000-0  11298-3 0  9995","EPHEMERIS_TYPE":"0","NORAD_CAT_ID":"51112","ARG_OF_PERICENTER":"51.2997","FILE":"3294578","INCLINATION":"53.2210","MEAN_ANOMALY":"308.8172","OBJECT_ID":"2022-005J","PERIAPSIS":"348.620","PERIOD":"91.533","BSTAR":"0.00011298000000","MEAN_MOTION_DDOT":"0.0000000000000","REV_AT_EPOCH":"329","COUNTRY_CODE":"US","MEAN_MOTION":"15.73208531","GP_ID":"195513492"},{"PERIOD":"91.541","BSTAR":"-0.00128360000000","MEAN_MOTION_DDOT":"0.0000000000000","REV_AT_EPOCH":"317","COUNTRY_CODE":"US","MEAN_MOTION":"15.73071918","GP_ID":"195484102","OBJECT_ID":"2022-005K","PERIAPSIS":"349.629","RA_OF_ASC_NODE":"181.2308","REF_FRAME":"TEME","TIME_SYSTEM":"UTC","DECAY_DATE":null,"MEAN_ELEMENT_THEORY":"SGP4","OBJECT_NAME":"STARLINK-3372","SITE":"AFETR","EPOCH":"2022-02-06T21:19:26.179680","LAUNCH_DATE":"2022-01-19","TLE_LINE1":"1 51113U 22005K   22037.88849745 -.00176064  00000-0 -12836-2 0  9995","NORAD_CAT_ID":"51113","EPHEMERIS_TYPE":"0","ARG_OF_PERICENTER":"105.1191","FILE":"3294379","INCLINATION":"53.2217","MEAN_ANOMALY":"254.9911","ECCENTRICITY":"0.00007370","OBJECT_TYPE":"PAYLOAD","CENTER_NAME":"EARTH","ELEMENT_SET_NO":"999","RCS_SIZE":"LARGE","APOAPSIS":"350.621","SEMIMAJOR_AXIS":"6728.260","CLASSIFICATION_TYPE":"U","MEAN_MOTION_DOT":"-0.00176064","TLE_LINE2":"2 51113  53.2217 181.2308 0000737 105.1191 254.9911 15.73071918  3175"},{"ARG_OF_PERICENTER":"54.9460","FILE":"3294578","INCLINATION":"53.2204","MEAN_ANOMALY":"305.1697","SITE":"AFETR","EPOCH":"2022-02-07T15:37:57.617184","TLE_LINE1":"1 51114U 22005L   22038.65136131  .00044346  00000-0  31804-3 0  9992","LAUNCH_DATE":"2022-01-19","EPHEMERIS_TYPE":"0","NORAD_CAT_ID":"51114","DECAY_DATE":null,"MEAN_ELEMENT_THEORY":"SGP4","OBJECT_NAME":"STARLINK-3375","RA_OF_ASC_NODE":"177.4633","REF_FRAME":"TEME","TIME_SYSTEM":"UTC","TLE_LINE2":"2 51114  53.2204 177.4633 0001462  54.9460 305.1697 15.73249763  3294","APOAPSIS":"350.602","RCS_SIZE":"LARGE","SEMIMAJOR_AXIS":"6727.753","MEAN_MOTION_DOT":"0.00044346","CLASSIFICATION_TYPE":"U","CENTER_NAME":"EARTH","ELEMENT_SET_NO":"999","OBJECT_TYPE":"PAYLOAD","ECCENTRICITY":"0.00014620","GP_ID":"195513121","COUNTRY_CODE":"US","MEAN_MOTION":"15.73249763","BSTAR":"0.00031804000000","MEAN_MOTION_DDOT":"0.0000000000000","REV_AT_EPOCH":"329","PERIOD":"91.530","OBJECT_ID":"2022-005L","PERIAPSIS":"348.635"},{"MEAN_MOTION_DDOT":"0.0000000000000","REV_AT_EPOCH":"329","BSTAR":"-0.00014927000000","PERIOD":"91.536","GP_ID":"195513569","COUNTRY_CODE":"US","MEAN_MOTION":"15.73143967","PERIAPSIS":"348.670","OBJECT_ID":"2022-005M","MEAN_ELEMENT_THEORY":"SGP4","OBJECT_NAME":"STARLINK-3397","DECAY_DATE":null,"TIME_SYSTEM":"UTC","RA_OF_ASC_NODE":"177.4574","REF_FRAME":"TEME","INCLINATION":"53.2211","MEAN_ANOMALY":"314.7328","ARG_OF_PERICENTER":"45.3844","FILE":"3294578","TLE_LINE1":"1 51115U 22005M   22038.65060578 -.00021467  00000-0 -14927-3 0  9992","LAUNCH_DATE":"2022-01-19","EPHEMERIS_TYPE":"0","NORAD_CAT_ID":"51115","EPOCH":"2022-02-07T15:36:52.339392","SITE":"AFETR","CENTER_NAME":"EARTH","ELEMENT_SET_NO":"999","OBJECT_TYPE":"PAYLOAD","ECCENTRICITY":"0.00018580","TLE_LINE2":"2 51115  53.2211 177.4574 0001858  45.3844 314.7328 15.73143967  3292","SEMIMAJOR_AXIS":"6728.055","CLASSIFICATION_TYPE":"U","MEAN_MOTION_DOT":"-0.00021467","APOAPSIS":"351.170","RCS_SIZE":"LARGE"},{"COUNTRY_CODE":"US","MEAN_MOTION":"15.73250968","GP_ID":"195513195","PERIOD":"91.530","REV_AT_EPOCH":"329","MEAN_MOTION_DDOT":"0.0000000000000","BSTAR":"0.00022487000000","PERIAPSIS":"348.940","OBJECT_ID":"2022-005N","TLE_LINE1":"1 51116U 22005N   22038.65101926  .00031124  00000-0  22487-3 0  9995","LAUNCH_DATE":"2022-01-19","EPHEMERIS_TYPE":"0","NORAD_CAT_ID":"51116","SITE":"AFETR","EPOCH":"2022-02-07T15:37:28.064064","INCLINATION":"53.2206","MEAN_ANOMALY":"299.4787","ARG_OF_PERICENTER":"60.6333","FILE":"3294578","TIME_SYSTEM":"UTC","RA_OF_ASC_NODE":"177.4609","REF_FRAME":"TEME","OBJECT_NAME":"STARLINK-3243","MEAN_ELEMENT_THEORY":"SGP4","DECAY_DATE":null,"SEMIMAJOR_AXIS":"6727.750","CLASSIFICATION_TYPE":"U","MEAN_MOTION_DOT":"0.00031124","RCS_SIZE":"MEDIUM","APOAPSIS":"350.290","TLE_LINE2":"2 51116  53.2206 177.4609 0001003  60.6333 299.4787 15.73250968  3299","ECCENTRICITY":"0.00010030","OBJECT_TYPE":"PAYLOAD","CENTER_NAME":"EARTH","ELEMENT_SET_NO":"999"}];
